OBJECT_NAME,OBJECT_ID,EPOCH,MEAN_MOTION,ECCENTRICITY,INCLINATION,RA_OF_ASC_NODE,ARG_OF_PERICENTER,MEAN_ANOMALY,EPHEMERIS_TYPE,CLASSIFICATION_TYPE,NORAD_CAT_ID,ELEMENT_SET_NO,REV_AT_EPOCH,BSTAR,MEAN_MOTION_DOT,MEAN_MOTION_DDOT
NUVIEW ALPHA,2024-252B,2026-06-10T04:20:27.160224,1.00268657,.00008836,0.0601,37.5130,6.5747,196.4908,0,U,62455,999,375,0,-.198E-5,0
AGILA,2024-252C,2026-06-09T22:27:38.734272,1.00271283,.00008464,0.0575,128.6151,338.6482,280.1045,0,U,62456,999,508,0,-.164E-5,0
NUVIEW BRAVO,2024-252D,2026-06-09T10:30:41.966208,1.00270853,.0001758,0.0715,143.0681,340.9414,208.3699,0,U,62457,999,371,0,-.198E-5,0
THURAYA-4,2025-001A,2026-06-10T06:39:31.940064,1.00272873,.00000954,0.0255,64.7685,188.6973,149.3726,0,U,62483,999,410,0,.157E-5,0
SHIJIAN-25 (SJ-25),2025-002A,2026-06-09T18:00:59.997888,1.00272159,.0052086,5.0946,61.2054,173.0142,61.4939,0,U,62485,999,528,0,-.334E-5,0
TJS-14,2025-017A,2026-06-10T06:32:02.658336,1.00271702,.00008162,0.7992,295.0975,283.8537,156.0549,0,U,62804,999,520,0,.133E-5,0
SPAINSAT NG I,2025-021A,2026-06-10T06:35:09.858624,1.00269726,.0000088,0.0177,341.3207,270.4510,134.6680,0,U,62852,999,391,0,.169E-5,0
QZS-6 (MICHIBIKI-6),2025-023A,2026-06-10T03:27:19.801152,1.00273018,.00018751,0.0354,58.5123,28.7523,313.5904,0,U,62876,999,487,0,-.216E-5,0
ZHONGXING-10R,2025-036A,2026-06-10T01:50:25.881216,1.00268583,.00033449,0.0399,249.9117,254.8974,251.7603,0,U,63075,999,488,0,-.334E-5,0
TJS-15,2025-045A,2026-06-09T17:07:37.136064,1.00274743,.0004854,0.2818,85.3656,298.4036,225.5785,0,U,63157,999,468,0,-.248E-5,0
TIANLIAN 2-04,2025-062A,2026-06-08T18:53:44.074752,1.00270193,.00314877,4.3975,274.5597,10.5183,335.5801,0,U,63361,999,451,0,-.12E-5,0
TJS-16,2025-064A,2026-06-09T15:48:44.238240,1.00271840,.0003519,1.0777,81.4975,291.2674,283.0571,0,U,63397,999,431,0,-.88E-6,0
TJS-17,2025-073A,2026-06-09T15:49:51.631104,1.00272079,.000227,1.0435,82.7569,298.7781,278.4847,0,U,63524,999,421,0,-.52E-6,0
TIANLIAN 2-05,2025-084A,2026-06-10T03:07:21.715680,1.00271020,.00033403,4.4703,279.9150,145.2348,260.5834,0,U,63662,999,431,0,.141E-5,0
TJS-19,2025-097A,2026-06-09T17:25:54.264864,1.00268609,.0002139,3.2998,317.3056,237.1536,106.3772,0,U,63924,999,406,0,-.262E-5,0
SXM-10,2025-122A,2026-06-10T05:53:41.127360,1.00269821,.00017068,0.0197,23.7095,343.5755,223.5661,0,U,64290,999,361,0,.1E-7,0
COSMOS 2589,2025-131A,2026-06-09T18:07:19.382016,1.00271139,.0001216,0.0483,76.4674,75.0725,116.3977,0,U,64467,999,348,0,-.274E-5,0
CHINASAT 9C,2025-132A,2026-06-10T03:27:49.754304,1.00271502,.00027156,0.0218,264.9201,174.1193,323.6460,0,U,64470,999,407,0,-.23E-5,0
MTG-S1,2025-143A,2026-06-10T06:25:48.256032,1.00271600,.00009911,0.6096,337.3431,23.0955,351.1670,0,U,64723,999,335,0,-.15E-6,0
DROR 1,2025-148A,2026-06-10T06:25:40.767744,1.00271617,.00027385,0.0140,26.1574,3.6647,321.2221,0,U,64784,999,322,0,-.17E-6,0
SHIYAN-29,2025-196A,2026-06-09T01:48:31.441824,1.00256520,.00109724,28.8121,18.6391,171.7452,188.2752,0,U,65486,999,279,0,-.259E-5,0
NUSANTARA LIMA (NUSANTARA 5),2025-205A,2026-06-10T06:59:04.348320,1.00270192,.00001927,0.0480,133.7912,352.9611,349.5295,0,U,65588,999,265,0,-.34E-5,0
TJS-20,2025-238A,2026-06-09T23:53:55.220064,1.00273056,.00046536,5.4867,299.5783,158.6065,221.0517,0,U,66142,999,226,0,.39E-6,0
CMS-03 (GSAT-7R),2025-249B,2026-06-10T04:42:21.653280,1.00271107,.00016935,0.0201,265.0057,171.7226,326.4190,0,U,66311,999,227,0,-.59E-6,0
VIASAT-3 F2,2025-261A,2026-06-09T21:30:54.736704,1.00271882,.00000854,0.0312,151.3567,327.6411,23.0058,0,U,66454,999,272,0,-.216E-5,0
SHIJIAN-28 (SJ-28),2025-277A,2026-06-10T07:00:11.740320,1.00266762,.00006179,4.5573,272.2452,351.1587,217.1483,0,U,66549,999,208,0,-.342E-5,0
TJS-22,2025-290A,2026-06-09T21:28:45.060672,1.00272420,.00019565,1.5457,286.4707,332.0625,28.3661,0,U,66990,999,195,0,.11E-6,0
TJS-23,2025-306A,2026-06-09T14:56:30.332256,1.00273603,.00051997,5.6047,297.5297,166.6180,193.4643,0,U,67226,999,181,0,.31E-6,0
FENGYUN 4C,2025-312A,2026-06-09T20:48:46.050624,1.00271562,.00005118,0.0328,153.2207,34.5844,155.6286,0,U,67246,999,170,0,-.305E-5,0
SHIJIAN-29A (SJ-29A),2025-315A,2026-06-10T04:52:21.643392,1.00269685,.00032079,3.3789,95.2846,23.3203,286.2843,0,U,67302,999,154,0,-.5E-6,0
SHIJIAN-29B (SJ-29B),2025-315C,2026-06-09T23:57:02.421216,1.00269629,.00036271,3.3773,95.2819,28.0595,207.5611,0,U,67403,999,161,0,-.5E-6,0
